{
    "CCSDS_OMM_VERS": "3.0",
    "COMMENT": "GENERATED VIA SPACE-TRACK.ORG API",
    "CREATION_DATE": "2025-11-23T21:08:43",
    "ORIGINATOR": "18 SPCS",
    "OBJECT_NAME": "BEIDOU 3M8",
    "OBJECT_ID": "2018-029B",
    "CENTER_NAME": "EARTH",
    "REF_FRAME": "TEME",
    "TIME_SYSTEM": "UTC",
    "MEAN_ELEMENT_THEORY": "SGP4",
    "EPOCH": "2025-11-22T16:35:34.978848",
    "MEAN_MOTION": "1.86229154",
    "ECCENTRICITY": "0.00037916",
    "INCLINATION": "54.3816",
    "RA_OF_ASC_NODE": "307.1944",
    "ARG_OF_PERICENTER": "357.3472",
    "MEAN_ANOMALY": "2.6416",
    "EPHEMERIS_TYPE": "0",
    "CLASSIFICATION_TYPE": "U",
    "NORAD_CAT_ID": "43246",
    "ELEMENT_SET_NO": "999",
    "REV_AT_EPOCH": "5203",
    "BSTAR": "0.00000000000000",
    "MEAN_MOTION_DOT": "-0.00000056",
    "MEAN_MOTION_DDOT": "0.0000000000000",
    "SEMIMAJOR_AXIS": "27906.373",
    "PERIOD": "773.241",
    "APOAPSIS": "21538.819",
    "PERIAPSIS": "21517.657",
    "OBJECT_TYPE": "PAYLOAD",
    "RCS_SIZE": "LARGE",
    "COUNTRY_CODE": "PRC",
    "LAUNCH_DATE": "2018-03-29",
    "SITE": "XSC",
    "DECAY_DATE": null,
    "FILE": "4896238",
    "GP_ID": "303333583",
    "TLE_LINE0": "0 BEIDOU 3M8",
    "TLE_LINE1": "1 43246U 18029B   25326.69137707 -.00000056  00000-0  00000-0 0  9999",
    "TLE_LINE2": "2 43246  54.3816 307.1944 0003792 357.3472   2.6416  1.86229154 52035"
}